IRIDIUM 119             
1 42959U 17061E   25307.77438235  .00000019  00000+0 -38863-6 0  9994
2 42959  86.3941 119.5060 0002130  83.5724 276.5715 14.34217614422508
IRIDIUM 107             
1 42960U 17061F   25307.72365447  .00000122  00000+0  36418-4 0  9991
2 42960  86.3937 119.5471 0001917  77.7401 282.4010 14.34216746422509
IRIDIUM 132             
1 42961U 17061G   25307.72998347  .00000001  00000+0 -68101-5 0  9995
2 42961  86.3938 119.5254 0001914  87.6023 272.5392 14.34217349422500
IRIDIUM 136             
1 42962U 17061H   25307.76169698  .00000005  00000+0 -54070-5 0  9993
2 42962  86.3942 119.5179 0002011  85.0486 275.0940 14.34217419422523
IRIDIUM 139             
1 42963U 17061J   25306.51220632  .00000327  00000+0  10973-3 0  9990
2 42963  86.3944 120.0987 0001875  83.2228 276.9181 14.34217144422354
IRIDIUM 125             
1 42964U 17061K   25307.75535450  .00000001  00000+0 -68157-5 0  9994
2 42964  86.3944 119.6358 0002086  74.0235 286.1190 14.34217503422545
IRIDIUM 135             
1 43070U 17083A   25307.58994441  .00000386  00000+0  13076-3 0  9990
2 43070  86.3975  56.3058 0002037  99.6955 260.4471 14.34217338411811
IRIDIUM 138             
1 43071U 17083B   25307.54554713  .00000004  00000+0 -57800-5 0  9994
2 43071  86.3985  55.9850 0002324  89.1748 270.9714 14.34217511411797
